{"type": "FeatureCollection", "features": [ {"type": "Feature", "properties": {"norad_id": 66052, "name": "HRC MONOBLOCK CAMERA", "group": "stations", "lat": -18.899123146192203, "lon": -15.120506741992827, "alt_km": 405.85178358258327, "timestamp": "2025-12-11T05:00:25.096180+00:00", "meta": {"OBJECT_NAME": "HRC MONOBLOCK CAMERA", "OBJECT_ID": "1998-067XR", "EPOCH": "2025-12-10T21:57:28.117728", "MEAN_MOTION": 15.5393345, "ECCENTRICITY": 0.00035533, "INCLINATION": 51.629, "RA_OF_ASC_NODE": 150.6048, "ARG_OF_PERICENTER": 175.8919, "MEAN_ANOMALY": 184.2101, "EPHEMERIS_TYPE": 0, "CLASSIFICATION_TYPE": "U", "NORAD_CAT_ID": 66052, "ELEMENT_SET_NO": 999, "REV_AT_EPOCH": 855, "BSTAR": 0.00075829554, "MEAN_MOTION_DOT": 0.00049683, "MEAN_MOTION_DDOT": 0}, "tle": {"line1": "1 66052U 98067XR  25344.91490877  .00049683  00000+0  75830-3 0  9997", "line2": "2 66052  51.6290 150.6048 0003553 175.8919 184.2101 15.53933450  8557"}}, "geometry": {"type": "Point", "coordinates": [-15.120506741992827, -18.899123146192203]}}, {"type": "Feature", "properties": {"norad_id": 66174, "name": "HTV-X1", "group": "stations", "lat": 41.497229732598605, "lon": -74.4377601362649, "alt_km": 413.39828662681884, "timestamp": "2025-12-11T05:00:25.096190+00:00", "meta": {"OBJECT_NAME": "HTV-X1", "OBJECT_ID": "2025-241A", "EPOCH": "2025-12-10T22:17:24.112320", "MEAN_MOTION": 15.49489378, "ECCENTRICITY": 0.00033509, "INCLINATION": 51.6309, "RA_OF_ASC_NODE": 151.4463, "ARG_OF_PERICENTER": 232.8214, "MEAN_ANOMALY": 127.2469, "EPHEMERIS_TYPE": 0, "CLASSIFICATION_TYPE": "U", "NORAD_CAT_ID": 66174, "ELEMENT_SET_NO": 999, "REV_AT_EPOCH": 51, "BSTAR": 0.00026508679, "MEAN_MOTION_DOT": 0.00014434, "MEAN_MOTION_DDOT": 0}, "tle": {"line1": "1 66174U 25241A   25344.92875130  .00014434  00000+0  26509-3 0  9991", "line2": "2 66174  51.6309 151.4463 0003350 232.8214 127.2469 15.49489378   512"}}, "geometry": {"type": "Point", "coordinates": [-74.4377601362649, 41.497229732598605]}}, {"type": "Feature", "properties": {"norad_id": 66515, "name": "SZ-21 MODULE", "group": "stations", "lat": 37.19133200057035, "lon": 84.58612179038896, "alt_km": 378.9248378527136, "timestamp": "2025-12-11T05:00:25.096200+00:00", "meta": {"OBJECT_NAME": "SZ-21 MODULE", "OBJECT_ID": "2025-246C", "EPOCH": "2025-12-10T11:51:01.003968", "MEAN_MOTION": 15.62311534, "ECCENTRICITY": 0.00062785, "INCLINATION": 41.4772, "RA_OF_ASC_NODE": 29.7454, "ARG_OF_PERICENTER": 248.1298, "MEAN_ANOMALY": 111.8874, "EPHEMERIS_TYPE": 0, "CLASSIFICATION_TYPE": "U", "NORAD_CAT_ID": 66515, "ELEMENT_SET_NO": 999, "REV_AT_EPOCH": 409, "BSTAR": 0.00039110764, "MEAN_MOTION_DOT": 0.00035412, "MEAN_MOTION_DDOT": 0}, "tle": {"line1": "1 66515U 25246C   25344.49376162  .00035412  00000+0  39111-3 0  9990", "line2": "2 66515  41.4772  29.7454 0006278 248.1298 111.8874 15.62311534  4092"}}, "geometry": {"type": "Point", "coordinates": [84.58612179038896, 37.19133200057035]}}, {"type": "Feature", "properties": {"norad_id": 66645, "name": "SHENZHOU-22", "group": "stations", "lat": 2.644908082431553, "lon": -156.9968481648133, "alt_km": 395.04212979443037, "timestamp": "2025-12-11T05:00:25.096210+00:00", "meta": {"OBJECT_NAME": "SHENZHOU-22", "OBJECT_ID": "2025-272A", "EPOCH": "2025-12-10T20:34:09.975360", "MEAN_MOTION": 15.59054125, "ECCENTRICITY": 0.0008705, "INCLINATION": 41.4684, "RA_OF_ASC_NODE": 28.1364, "ARG_OF_PERICENTER": 14.9689, "MEAN_ANOMALY": 345.1405, "EPHEMERIS_TYPE": 0, "CLASSIFICATION_TYPE": "U", "NORAD_CAT_ID": 66645, "ELEMENT_SET_NO": 999, "REV_AT_EPOCH": 26357, "BSTAR": 0.00042990708, "MEAN_MOTION_DOT": 0.0003436, "MEAN_MOTION_DDOT": 0}, "tle": {"line1": "1 66645U 25272A   25344.85705990  .00034360  00000+0  42991-3 0  9999", "line2": "2 66645  41.4684  28.1364 0008705  14.9689 345.1405 15.59054125263579"}}, "geometry": {"type": "Point", "coordinates": [-156.9968481648133, 2.644908082431553]}}, {"type": "Feature", "properties": {"norad_id": 66664, "name": "SOYUZ-MS 28", "group": "stations", "lat": 41.49722864777664, "lon": -74.43775799001659, "alt_km": 413.39828672210297, "timestamp": "2025-12-11T05:00:25.096220+00:00", "meta": {"OBJECT_NAME": "SOYUZ-MS 28", "OBJECT_ID": "2025-275A", "EPOCH": "2025-12-10T22:17:24.112320", "MEAN_MOTION": 15.49489378, "ECCENTRICITY": 0.00033509, "INCLINATION": 51.6309, "RA_OF_ASC_NODE": 151.4463, "ARG_OF_PERICENTER": 232.8214, "MEAN_ANOMALY": 127.2469, "EPHEMERIS_TYPE": 0, "CLASSIFICATION_TYPE": "U", "NORAD_CAT_ID": 66664, "ELEMENT_SET_NO": 999, "REV_AT_EPOCH": 128, "BSTAR": 0.00026508679, "MEAN_MOTION_DOT": 0.00014434, "MEAN_MOTION_DDOT": 0}, "tle": {"line1": "1 66664U 25275A   25344.92875130  .00014434  00000+0  26509-3 0  9992", "line2": "2 66664  51.6309 151.4463 0003350 232.8214 127.2469 15.49489378  1281"}}, "geometry": {"type": "Point", "coordinates": [-74.43775799001659, 41.49722864777664]}}, {"type": "Feature", "properties": {"norad_id": 66906, "name": "1998-067XS", "group": "stations", "lat": 25.69615966735257, "lon": -52.40049671699585, "alt_km": 410.6417551644645, "timestamp": "2025-12-11T05:00:25.096229+00:00", "meta": {"OBJECT_NAME": "1998-067XS", "OBJECT_ID": "1998-067XS", "EPOCH": "2025-12-10T19:05:48.365088", "MEAN_MOTION": 15.50409035, "ECCENTRICITY": 0.00037964, "INCLINATION": 51.6302, "RA_OF_ASC_NODE": 152.0585, "ARG_OF_PERICENTER": 193.8715, "MEAN_ANOMALY": 166.217, "EPHEMERIS_TYPE": 0, "CLASSIFICATION_TYPE": "U", "NORAD_CAT_ID": 66906, "ELEMENT_SET_NO": 999, "REV_AT_EPOCH": 131, "BSTAR": 0.0006657488, "MEAN_MOTION_DOT": 0.00038284, "MEAN_MOTION_DDOT": 0}, "tle": {"line1": "1 66906U 98067XS  25344.79569867  .00038284  00000+0  66575-3 0  9998", "line2": "2 66906  51.6302 152.0585 0003796 193.8715 166.2170 15.50409035  1311"}}, "geometry": {"type": "Point", "coordinates": [-52.40049671699585, 25.69615966735257]}}, {"type": "Feature", "properties": {"norad_id": 66907, "name": "1998-067XT", "group": "stations", "lat": 17.7519032737856, "lon": -44.70741804073613, "alt_km": 409.8903109809762, "timestamp": "2025-12-11T05:00:25.096239+00:00", "meta": {"OBJECT_NAME": "1998-067XT", "OBJECT_ID": "1998-067XT", "EPOCH": "2025-12-09T12:07:37.114752", "MEAN_MOTION": 15.50864429, "ECCENTRICITY": 0.00048036, "INCLINATION": 51.6307, "RA_OF_ASC_NODE": 158.4423, "ARG_OF_PERICENTER": 208.5081, "MEAN_ANOMALY": 151.5646, "EPHEMERIS_TYPE": 0, "CLASSIFICATION_TYPE": "U", "NORAD_CAT_ID": 66907, "ELEMENT_SET_NO": 999, "REV_AT_EPOCH": 111, "BSTAR": 0.0012921241, "MEAN_MOTION_DOT": 0.00076342, "MEAN_MOTION_DDOT": 0}, "tle": {"line1": "1 66907U 98067XT  25343.50529068  .00076342  00000+0  12921-2 0  9998", "line2": "2 66907  51.6307 158.4423 0004803 208.5081 151.5646 15.50864429  1113"}}, "geometry": {"type": "Point", "coordinates": [-44.70741804073613, 17.7519032737856]}}, {"type": "Feature", "properties": {"norad_id": 66908, "name": "1998-067XU", "group": "stations", "lat": 16.588963723806334, "lon": -43.667748421888454, "alt_km": 409.7626768369764, "timestamp": "2025-12-11T05:00:25.096249+00:00", "meta": {"OBJECT_NAME": "1998-067XU", "OBJECT_ID": "1998-067XU", "EPOCH": "2025-12-10T15:57:23.331168", "MEAN_MOTION": 15.51115637, "ECCENTRICITY": 0.00048129, "INCLINATION": 51.6304, "RA_OF_ASC_NODE": 152.6848, "ARG_OF_PERICENTER": 213.5482, "MEAN_ANOMALY": 146.5203, "EPHEMERIS_TYPE": 0, "CLASSIFICATION_TYPE": "U", "NORAD_CAT_ID": 66908, "ELEMENT_SET_NO": 999, "REV_AT_EPOCH": 129, "BSTAR": 0.0014713865, "MEAN_MOTION_DOT": 0.00087912, "MEAN_MOTION_DDOT": 0}, "tle": {"line1": "1 66908U 98067XU  25344.66485337  .00087912  00000+0  14714-2 0  9994", "line2": "2 66908  51.6304 152.6848 0004812 213.5482 146.5203 15.51115637  1292"}}, "geometry": {"type": "Point", "coordinates": [-43.667748421888454, 16.588963723806334]}}, {"type": "Feature", "properties": {"norad_id": 66909, "name": "SILVERSAT", "group": "stations", "lat": 15.448349106582961, "lon": -42.66581577918345, "alt_km": 409.7420323511933, "timestamp": "2025-12-11T05:00:25.096259+00:00", "meta": {"OBJECT_NAME": "SILVERSAT", "OBJECT_ID": "1998-067XV", "EPOCH": "2025-12-10T17:29:49.371360", "MEAN_MOTION": 15.51224506, "ECCENTRICITY": 0.00046681, "INCLINATION": 51.6307, "RA_OF_ASC_NODE": 152.3636, "ARG_OF_PERICENTER": 216.2554, "MEAN_ANOMALY": 143.8119, "EPHEMERIS_TYPE": 0, "CLASSIFICATION_TYPE": "U", "NORAD_CAT_ID": 66909, "ELEMENT_SET_NO": 999, "REV_AT_EPOCH": 130, "BSTAR": 0.0015305983, "MEAN_MOTION_DOT": 0.00091869, "MEAN_MOTION_DDOT": 0}, "tle": {"line1": "1 66909U 98067XV  25344.72904365  .00091869  00000+0  15306-2 0  9993", "line2": "2 66909  51.6307 152.3636 0004668 216.2554 143.8119 15.51224506  1301"}}, "geometry": {"type": "Point", "coordinates": [-42.66581577918345, 15.448349106582961]}}, {"type": "Feature", "properties": {"norad_id": 66910, "name": "1998-067XW", "group": "stations", "lat": 9.593721626218962, "lon": -37.73012039513121, "alt_km": 408.6641612015401, "timestamp": "2025-12-11T05:00:25.096270+00:00", "meta": {"OBJECT_NAME": "1998-067XW", "OBJECT_ID": "1998-067XW", "EPOCH": "2025-12-10T11:16:54.563808", "MEAN_MOTION": 15.51350337, "ECCENTRICITY": 0.00055419, "INCLINATION": 51.6299, "RA_OF_ASC_NODE": 153.6351, "ARG_OF_PERICENTER": 197.1967, "MEAN_ANOMALY": 162.8836, "EPHEMERIS_TYPE": 0, "CLASSIFICATION_TYPE": "U", "NORAD_CAT_ID": 66910, "ELEMENT_SET_NO": 999, "REV_AT_EPOCH": 126, "BSTAR": 0.0013818348, "MEAN_MOTION_DOT": 0.00083191, "MEAN_MOTION_DDOT": 0}, "tle": {"line1": "1 66910U 98067XW  25344.47007597  .00083191  00000+0  13818-2 0  9993", "line2": "2 66910  51.6299 153.6351 0005541 197.1967 162.8836 15.51350337  1261"}}, "geometry": {"type": "Point", "coordinates": [-37.73012039513121, 9.593721626218962]}}]}